OBJECT_NAME,OBJECT_ID,EPOCH,MEAN_MOTION,ECCENTRICITY,INCLINATION,RA_OF_ASC_NODE,ARG_OF_PERICENTER,MEAN_ANOMALY,EPHEMERIS_TYPE,CLASSIFICATION_TYPE,NORAD_CAT_ID,ELEMENT_SET_NO,REV_AT_EPOCH,BSTAR,MEAN_MOTION_DOT,MEAN_MOTION_DDOT
MONITOR-4 (RS57S),2023-091S,2026-06-25T13:25:58.561248,15.28084118,.0012826,97.5079,240.0391,75.1936,285.0724,0,U,57182,999,16557,.47925628E-3,.13089E-3,0
MONITOR-2 (RS39S),2023-091U,2026-06-25T11:33:18.450720,15.18981670,.00127696,97.5073,234.7107,86.0983,274.1711,0,U,57184,999,16521,.27276434E-3,.5648E-4,0
SVYATOBOR 1 (RS60S),2023-091X,2026-06-25T12:20:53.321856,15.26746325,.00105905,97.5092,240.3777,69.3875,290.8498,0,U,57187,999,16558,.44074618E-3,.1154E-3,0
HORS 1,2023-091Y,2026-06-25T13:33:35.496288,15.26858559,.00100526,97.5069,240.1897,69.3583,290.8732,0,U,57188,999,16559,.44750927E-3,.11757E-3,0
VIZARD-METEO (RS38S),2023-091Z,2026-06-25T13:13:02.288352,15.36273552,.00076652,97.5094,246.2041,52.0534,308.1402,0,U,57189,999,16597,.61600739E-3,.21755E-3,0
SITRO-AIS 6 (CHIRKIN),2023-091AC,2026-06-25T12:10:52.571424,15.26082158,.00129235,97.5070,239.5611,80.8158,279.4542,0,U,57192,999,16555,.51273634E-3,.13184E-3,0
SITRO-AIS 8 (ANOKHIN),2023-091AD,2026-06-25T12:16:53.869440,15.32343645,.00114666,97.5059,242.1132,74.1030,286.1474,0,U,57193,999,16572,.55683985E-3,.17364E-3,0
SITRO-AIS 7 (FARTUSHNIY),2023-091AE,2026-06-25T12:17:52.257696,15.25766361,.00127934,97.5068,239.3867,81.7271,278.5417,0,U,57194,999,16554,.50576104E-3,.12879E-3,0
AVION KALUGA 650,2023-091AF,2026-06-25T12:29:43.543968,15.20434178,.00118661,97.5090,236.0632,84.3115,275.9473,0,U,57195,999,16529,.32733568E-3,.7084E-4,0
HORS 2,2023-091AG,2026-06-25T12:35:42.041760,15.32085410,.00088333,97.5091,243.6684,62.7655,297.4485,0,U,57196,999,16580,.55015153E-3,.17002E-3,0
A-SEANSAT-PG1,2023-091AH,2026-06-25T12:56:39.263712,15.37229372,.00076443,97.5084,246.2994,59.8640,300.3360,0,U,57197,999,16599,.65099675E-3,.23719E-3,0
SITRO-AIS 10 (BURDAEV),2023-091AK,2026-06-25T12:11:36.179232,15.38907315,.00068235,97.5083,247.2500,54.9894,305.1991,0,U,57199,999,16604,.64746727E-3,.2491E-3,0
SITRO-AIS 9 (SHCHUKIN),2023-091AM,2026-06-25T12:53:28.496832,15.38407270,.00070755,97.5083,247.0030,55.0098,305.1810,0,U,57201,999,16603,.64435376E-3,.24389E-3,0
UTMN 2 (RS27S),2023-091AP,2026-06-25T11:39:36.930240,15.32239281,.00087349,97.5089,243.8222,58.8741,301.3357,0,U,57203,999,16581,.52575255E-3,.16321E-3,0
SITRO-AIS 12 (SMIRENNIY),2023-091AQ,2026-06-25T12:37:40.643040,15.38700871,.00065729,97.5095,247.4643,49.8892,310.2928,0,U,57204,999,16605,.61610895E-3,.23535E-3,0
SITRO-AIS 11 (SHEFFER),2023-091AU,2026-06-25T12:53:39.721056,15.39130486,.00064784,97.5093,247.7276,49.6117,310.5693,0,U,57208,999,16607,.63480562E-3,.24597E-3,0
H2SAT (HEINRICH HERTZ),2023-093A,2026-06-25T07:28:10.235712,1.00269986,.00008478,0.0482,107.4304,17.0766,261.6799,0,U,57213,999,1099,0,.11E-6,0
KUZGTU 1 (RS47S),2023-091AV,2026-06-25T12:52:45.914592,15.30036915,.00119597,97.5068,241.1017,72.1533,288.1010,0,U,57217,999,16565,.56509666E-3,.16404E-3,0
QIANKUN-1,2023-103B,2026-06-24T03:24:20.703456,16.07644797,.00336534,96.1516,219.4975,146.3074,214.0360,0,U,57422,999,16841,.35190923E-4,.29952E-3,.2050203E-5
FENGYUN 3F,2023-111A,2026-06-25T15:23:40.849728,14.19940391,.00015603,98.6834,246.4927,87.0481,273.0874,0,U,57490,999,15006,.38281616E-4,.38E-6,0
HJ-2F,2023-116A,2026-06-25T14:24:04.082400,15.22431605,.00089525,97.3843,181.6721,26.4223,333.7469,0,U,57519,999,16003,.38376283E-3,.8817E-4,0
XRISM,2023-137A,2026-06-25T12:08:25.131552,15.12532699,.00077963,31.0027,305.7147,47.4275,312.7021,0,U,57800,999,15412,.27564996E-3,.5024E-4,0
METEOR-M2 4,2024-039A,2026-06-25T14:59:14.705664,14.22430351,.0007748,98.7013,135.8166,138.2102,221.9669,0,U,59051,999,12046,.23287527E-4,.8E-7,0
GRBBETA,2024-128C,2026-06-25T12:22:59.037312,15.06684345,.00395743,61.9879,187.0432,136.4122,224.0109,0,U,60237,999,10752,.24623407E-3,.3519E-4,0
TRANSPORTER-11 OBJECT A,2024-149A,2026-06-25T04:22:37.630272,15.33025007,.00036067,97.3731,256.0873,167.2224,192.9110,0,U,60468,999,10328,.32220422E-3,.10205E-3,0
WARATAH SEED-1,2024-149B,2026-06-25T04:32:17.763072,15.36127248,.00022156,97.3691,256.7716,158.5761,201.5576,0,U,60469,999,10334,.44504171E-3,.15597E-3,0
PHISAT 2,2024-149C,2026-06-25T11:28:19.084224,15.31164317,.00018944,97.3756,255.6482,157.3441,202.7884,0,U,60470,999,10326,.2728651E-3,.8138E-4,0
LEMUR-2-TOMATOKECHUP,2024-149D,2026-06-25T12:15:19.445472,15.36192816,.0002174,97.3803,258.5789,159.6336,200.4995,0,U,60471,999,10344,.38803538E-3,.13614E-3,0
CONNECTA IOT-1,2024-149E,2026-06-25T04:10:50.096352,15.23595578,.00008989,97.3758,252.3306,191.3012,168.8205,0,U,60472,999,10301,.18165828E-3,.4277E-4,0
